TOMORROW-S9             
1 66309U 25248S   26186.59646488  .00005940  00000+0  27812-3 0  9998
2 66309  45.4037  23.0494 0003327 179.9163 180.1724 15.20677475 37313
CMS-03 (GSAT-7R)        
1 66311U 25249B   26186.59137403 -.00000063  00000+0  00000+0 0  9992
2 66311   0.0506 255.6216 0001841 179.8102 135.0245  1.00271665  2537
YAOGAN-46               
1 66313U 25250A   26185.27961817 -.00000026  00000+0  00000+0 0  9993
2 66313  20.0833 327.2118 0004768 157.8496 202.1946  5.31203766 13007
SENTINEL-1D             
1 66315U 25251A   26185.99559531 -.00000119  00000+0 -15564-4 0  9991
2 66315  98.1835 193.1045 0001306  90.7095 269.4254 14.59197335 35322
QPS-SAR-14 (YACHIHOKO-I)
1 66316U 25252A   26185.97652528  .00007762  00000+0  63085-3 0  9990
2 66316  42.0046  34.0129 0005701 356.9146   3.1643 14.99804901 36186
STARLINK-35442          
1 66319U 25253A   26186.27360211  .00017057  00000+0  62734-3 0  9991
2 66319  43.0037 268.7901 0001637 239.2569 120.8122 15.27610154 38223
STARLINK-34616          
1 66320U 25253B   26186.28502199  .00024164  00000+0  88407-3 0  9999
2 66320  43.0022 268.0098 0002355 270.7828  89.2753 15.27603757 38314
STARLINK-34615          
1 66321U 25253C   26186.31071715 -.00020600  00000+0 -74154-3 0  9996
2 66321  42.9987 268.1800 0002582 290.3581  69.6993 15.27558280 38230
STARLINK-35292          
1 66322U 25253D   26186.29915705 -.00002311  00000+0 -74577-4 0  9999
2 66322  42.9970 268.1152 0001484 262.1588  97.9095 15.27544903 38231
STARLINK-35309          
1 66323U 25253E   26186.27489848  .00029597  00000+0  10788-2 0  9997
2 66323  42.9986 268.7876 0001369 213.2458 146.8308 15.27639395 38223
STARLINK-35506          
1 66324U 25253F   26186.55045964  .00041471  00000+0  15068-2 0  9997
2 66324  43.0025 266.5629 0001502 311.2432  48.8290 15.27608589 38279
STARLINK-35504          
1 66325U 25253G   26186.27745814  .00034819  00000+0  12675-2 0  9997
2 66325  42.9982 268.8161 0001298 241.5311 118.5410 15.27614056 38229
STARLINK-35479          
1 66326U 25253H   26186.25304394  .00038508  00000+0  13997-2 0  9997
2 66326  42.9963 268.6260 0000456 280.3559  79.7242 15.27624667 38227
STARLINK-35507          
1 66327U 25253J   26186.55814519 -.00023666  00000+0 -85416-3 0  9993
2 66327  43.0004 266.6172 0001215 291.3620  68.7102 15.27544719 38278
STARLINK-35460          
1 66328U 25253K   26186.26977215  .00035196  00000+0  12826-2 0  9998
2 66328  43.0004 268.7551 0000960 280.6017  79.4726 15.27576381 38226
STARLINK-35505          
1 66329U 25253L   26186.57612915 -.00020317  00000+0 -73191-3 0  9990
2 66329  42.9963 266.7493 0003427 290.1172  69.9311 15.27523389 38270
STARLINK-35512          
1 66330U 25253M   26186.26332220  .00035075  00000+0  12765-2 0  9990
2 66330  42.9963 268.7097 0000407 279.9353  80.1453 15.27619325 38228
STARLINK-35257          
1 66331U 25253N   26186.48889968 -.00012204  00000+0 -43533-3 0  9990
2 66331  43.0019 266.9548 0003091 297.4565  62.5972 15.27524552 38267
STARLINK-35322          
1 66332U 25253P   26186.56456740  .00003307  00000+0  12987-3 0  9999
2 66332  42.9996 266.6669 0001684 267.8719  92.1940 15.27524066 38274
STARLINK-35400          
1 66333U 25253Q   26186.28261081  .00024628  00000+0  89975-3 0  9991
2 66333  42.9995 268.8439 0001930 186.5328 173.5499 15.27643893 38228
STARLINK-35407          
1 66334U 25253R   26186.29529816 -.00020567  00000+0 -74029-3 0  9990
2 66334  42.9976 268.0835 0002290 283.5487  76.5110 15.27561326 38237
STARLINK-35417          
1 66335U 25253S   26186.57870936  .00017646  00000+0  65078-3 0  9990
2 66335  42.9967 266.7725 0001383 304.4938  55.5783 15.27502058 38271
STARLINK-35404          
1 66336U 25253T   26186.56971074  .00006485  00000+0  24541-3 0  9994
2 66336  43.0003 266.7029 0001447 287.6981  72.3713 15.27522120 38275
STARLINK-34783          
1 66337U 25253U   26186.28131423  .00019732  00000+0  72524-3 0  9993
2 66337  42.9978 268.8422 0003882 293.4157  66.6286 15.27548821 38222
STARLINK-35477          
1 66338U 25253V   26186.56844062 -.00014072  00000+0 -50406-3 0  9994
2 66338  42.9953 266.6952 0000704 274.3724  85.7047 15.27501315 38277
STARLINK-35443          
1 66339U 25253W   26186.31330498  .00027038  00000+0  98714-3 0  9999
2 66339  43.0009 268.2152 0002314 277.8818  82.1770 15.27622472 38231
STARLINK-35218          
1 66340U 25253X   26186.27102880  .00032174  00000+0  11722-2 0  9998
2 66340  43.0000 268.7594 0001600 244.4411 115.6276 15.27619134 38228
STARLINK-35522          
1 66341U 25253Y   26186.26075306  .00043012  00000+0  15613-2 0  9996
2 66341  42.9966 268.6846 0000602 246.9771 113.1017 15.27624719 38225
STARLINK-35535          
1 66342U 25253Z   26186.58255934  .00004659  00000+0  17884-3 0  9996
2 66342  42.9987 266.7985 0001930 291.8316  68.2330 15.27559972 38272
STARLINK-35467          
1 66343U 25253AA  26186.26717388  .00012388  00000+0  45848-3 0  9997
2 66343  43.0014 268.7308 0002062 253.4333 106.6292 15.27611668 38227
