OBJECT_NAME,OBJECT_ID,EPOCH,MEAN_MOTION,ECCENTRICITY,INCLINATION,RA_OF_ASC_NODE,ARG_OF_PERICENTER,MEAN_ANOMALY,EPHEMERIS_TYPE,CLASSIFICATION_TYPE,NORAD_CAT_ID,ELEMENT_SET_NO,REV_AT_EPOCH,BSTAR,MEAN_MOTION_DOT,MEAN_MOTION_DDOT
TOMORROW-S9,2025-248S,2026-07-05T14:18:54.565632,15.20677475,.00033274,45.4037,23.0494,179.9163,180.1724,0,U,66309,999,3731,.27811653E-3,.594E-4,0
CMS-03 (GSAT-7R),2025-249B,2026-07-05T14:11:34.716192,1.00271665,.0001841,0.0506,255.6216,179.8102,135.0245,0,U,66311,999,253,0,-.63E-6,0
YAOGAN-46,2025-250A,2026-07-04T06:42:39.009888,5.31203766,.00047688,20.0833,327.2118,157.8496,202.1946,0,U,66313,999,1300,0,-.26E-6,0
SENTINEL-1D,2025-251A,2026-07-04T23:53:39.434784,14.59197335,.00013065,98.1835,193.1045,90.7095,269.4254,0,U,66315,999,3532,-.15563546E-4,-.119E-5,0
QPS-SAR-14 (YACHIHOKO-I),2025-252A,2026-07-04T23:26:11.784192,14.99804901,.00057017,42.0046,34.0129,356.9146,3.1643,0,U,66316,999,3618,.63084974E-3,.7762E-4,0
STARLINK-35442,2025-253A,2026-07-05T06:33:59.222304,15.27610154,.00016377,43.0037,268.7901,239.2569,120.8122,0,U,66319,999,3822,.62734165E-3,.17057E-3,0
STARLINK-34616,2025-253B,2026-07-05T06:50:25.899936,15.27603757,.00023556,43.0022,268.0098,270.7828,89.2753,0,U,66320,999,3831,.88406829E-3,.24164E-3,0
STARLINK-34615,2025-253C,2026-07-05T07:27:25.961760,15.27558280,.0002582,42.9987,268.1800,290.3581,69.6993,0,U,66321,999,3823,-.74154342E-3,-.206E-3,0
STARLINK-35292,2025-253D,2026-07-05T07:10:47.169120,15.27544903,.00014848,42.9970,268.1152,262.1588,97.9095,0,U,66322,999,3823,-.74576558E-4,-.2311E-4,0
STARLINK-35309,2025-253E,2026-07-05T06:35:51.228672,15.27639395,.0001369,42.9986,268.7876,213.2458,146.8308,0,U,66323,999,3822,.10787859E-2,.29597E-3,0
STARLINK-35506,2025-253F,2026-07-05T13:12:39.712896,15.27608589,.00015024,43.0025,266.5629,311.2432,48.8290,0,U,66324,999,3827,.15067965E-2,.41471E-3,0
STARLINK-35504,2025-253G,2026-07-05T06:39:32.383296,15.27614056,.0001298,42.9982,268.8161,241.5311,118.5410,0,U,66325,999,3822,.12675433E-2,.34819E-3,0
STARLINK-35479,2025-253H,2026-07-05T06:04:22.996416,15.27624667,.00004564,42.9963,268.6260,280.3559,79.7242,0,U,66326,999,3822,.13996894E-2,.38508E-3,0
STARLINK-35507,2025-253J,2026-07-05T13:23:43.744416,15.27544719,.0001215,43.0004,266.6172,291.3620,68.7102,0,U,66327,999,3827,-.8541627E-3,-.23666E-3,0
STARLINK-35460,2025-253K,2026-07-05T06:28:28.313760,15.27576381,.00009604,43.0004,268.7551,280.6017,79.4726,0,U,66328,999,3822,.12825742E-2,.35196E-3,0
STARLINK-35505,2025-253L,2026-07-05T13:49:37.558560,15.27523389,.00034275,42.9963,266.7493,290.1172,69.9311,0,U,66329,999,3827,-.73191404E-3,-.20317E-3,0
STARLINK-35512,2025-253M,2026-07-05T06:19:11.038080,15.27619325,.00004075,42.9963,268.7097,279.9353,80.1453,0,U,66330,999,3822,.1276529E-2,.35075E-3,0
STARLINK-35257,2025-253N,2026-07-05T11:44:00.932352,15.27524552,.00030917,43.0019,266.9548,297.4565,62.5972,0,U,66331,999,3826,-.43532671E-3,-.12204E-3,0
STARLINK-35322,2025-253P,2026-07-05T13:32:58.623360,15.27524066,.00016849,42.9996,266.6669,267.8719,92.1940,0,U,66332,999,3827,.12986807E-3,.3307E-4,0
STARLINK-35400,2025-253Q,2026-07-05T06:46:57.573984,15.27643893,.00019306,42.9995,268.8439,186.5328,173.5499,0,U,66333,999,3822,.89974654E-3,.24628E-3,0
STARLINK-35407,2025-253R,2026-07-05T07:05:13.761024,15.27561326,.00022902,42.9976,268.0835,283.5487,76.5110,0,U,66334,999,3823,-.74028736E-3,-.20567E-3,0
STARLINK-35417,2025-253S,2026-07-05T13:53:20.488704,15.27502058,.00013836,42.9967,266.7725,304.4938,55.5783,0,U,66335,999,3827,.65077629E-3,.17646E-3,0
STARLINK-35404,2025-253T,2026-07-05T13:40:23.007936,15.27522120,.00014472,43.0003,266.7029,287.6981,72.3713,0,U,66336,999,3827,.24541053E-3,.6485E-4,0
STARLINK-34783,2025-253U,2026-07-05T06:45:05.549472,15.27548821,.00038822,42.9978,268.8422,293.4157,66.6286,0,U,66337,999,3822,.72524189E-3,.19732E-3,0
STARLINK-35477,2025-253V,2026-07-05T13:38:33.269568,15.27501315,.00007045,42.9953,266.6952,274.3724,85.7047,0,U,66338,999,3827,-.504063E-3,-.14072E-3,0
STARLINK-35443,2025-253W,2026-07-05T07:31:09.550272,15.27622472,.00023145,43.0009,268.2152,277.8818,82.1770,0,U,66339,999,3823,.98714252E-3,.27038E-3,0
STARLINK-35218,2025-253X,2026-07-05T06:30:16.888320,15.27619134,.00016002,43.0000,268.7594,244.4411,115.6276,0,U,66340,999,3822,.11721967E-2,.32174E-3,0
STARLINK-35522,2025-253Y,2026-07-05T06:15:29.064384,15.27624719,.00006029,42.9966,268.6846,246.9771,113.1017,0,U,66341,999,3822,.15613419E-2,.43012E-3,0
STARLINK-35535,2025-253Z,2026-07-05T13:58:53.126976,15.27559972,.00019307,42.9987,266.7985,291.8316,68.2330,0,U,66342,999,3827,.17884029E-3,.4659E-4,0
STARLINK-35467,2025-253AA,2026-07-05T06:24:43.823232,15.27611668,.00020621,43.0014,268.7308,253.4333,106.6292,0,U,66343,999,3822,.45847839E-3,.12388E-3,0
